{
  "norad_id": 55146,
  "name": "ONEWEB-0565",
  "history": [
    {
      "epoch": "2026-04-10T03:48:29.727360Z",
      "apogee_km": 1191.082611514409,
      "perigee_km": 1188.4057005918894,
      "latitude_deg": -4.6469541345376216e-06,
      "longitude_deg": 93.50250598220255,
      "height_km": 1192.0677993063807,
      "semi_major_axis_km": 7567.8811560531485,
      "eccentricity": 0.00017686,
      "inclination_deg": 87.9213,
      "raan_deg": 349.0229,
      "arg_perigee_deg": 64.6189,
      "mean_anomaly_deg": 295.5126,
      "mean_motion_rev_day": 13.18685731
    },
    {
      "epoch": "2026-04-11T10:45:57.254112Z",
      "apogee_km": 1191.0439453908548,
      "perigee_km": 1188.4542147742504,
      "latitude_deg": -5.275529017629891e-05,
      "longitude_deg": -12.3896786185862,
      "height_km": 1192.0837821826651,
      "semi_major_axis_km": 7567.886080082552,
      "eccentricity": 0.0001711,
      "inclination_deg": 87.9206,
      "raan_deg": 348.7668,
      "arg_perigee_deg": 64.2399,
      "mean_anomaly_deg": 295.8909,
      "mean_motion_rev_day": 13.18684444
    },
    {
      "epoch": "2026-04-13T02:49:43.511808Z",
      "apogee_km": 1191.0064069965347,
      "perigee_km": 1188.4928091385318,
      "latitude_deg": -4.048894658097906e-06,
      "longitude_deg": 104.69075868291603,
      "height_km": 1192.1106044030041,
      "semi_major_axis_km": 7567.886608067533,
      "eccentricity": 0.00016607,
      "inclination_deg": 87.9205,
      "raan_deg": 348.4353,
      "arg_perigee_deg": 64.7292,
      "mean_anomaly_deg": 295.4012,
      "mean_motion_rev_day": 13.18684306
    },
    {
      "epoch": "2026-04-14T15:14:58.298208Z",
      "apogee_km": 1191.0179343530071,
      "perigee_km": 1188.4781521324949,
      "latitude_deg": 8.173170082350133e-05,
      "longitude_deg": -83.41789477877248,
      "height_km": 1192.1227037940039,
      "semi_major_axis_km": 7567.885043242751,
      "eccentricity": 0.0001678,
      "inclination_deg": 87.9205,
      "raan_deg": 348.134,
      "arg_perigee_deg": 65.6889,
      "mean_anomaly_deg": 294.4419,
      "mean_motion_rev_day": 13.18684715
    },
    {
      "epoch": "2026-04-15T16:44:38.652576Z",
      "apogee_km": 1191.0105033448963,
      "perigee_km": 1188.4843435243547,
      "latitude_deg": 2.3361714251229368e-05,
      "longitude_deg": -107.09426181219798,
      "height_km": 1192.1325460537282,
      "semi_major_axis_km": 7567.884423434625,
      "eccentricity": 0.0001669,
      "inclination_deg": 87.9201,
      "raan_deg": 347.9228,
      "arg_perigee_deg": 66.0688,
      "mean_anomaly_deg": 294.0619,
      "mean_motion_rev_day": 13.18684877
    },
    {
      "epoch": "2026-04-16T14:35:47.430240Z",
      "apogee_km": 1190.947160086298,
      "perigee_km": 1188.5436006422942,
      "latitude_deg": -4.490760341864955e-05,
      "longitude_deg": -75.95998387266312,
      "height_km": 1192.1730149397827,
      "semi_major_axis_km": 7567.882380364296,
      "eccentricity": 0.0001588,
      "inclination_deg": 87.9204,
      "raan_deg": 347.7411,
      "arg_perigee_deg": 66.9792,
      "mean_anomaly_deg": 293.1507,
      "mean_motion_rev_day": 13.18685411
    },
    {
      "epoch": "2026-04-17T16:05:27.786336Z",
      "apogee_km": 1190.9223740519628,
      "perigee_km": 1188.5722432587518,
      "latitude_deg": -3.4657568500739604e-05,
      "longitude_deg": -99.63575607739605,
      "height_km": 1192.1795897956572,
      "semi_major_axis_km": 7567.884308655357,
      "eccentricity": 0.00015527,
      "inclination_deg": 87.9198,
      "raan_deg": 347.5305,
      "arg_perigee_deg": 66.6686,
      "mean_anomaly_deg": 293.4609,
      "mean_motion_rev_day": 13.18684907
    },
    {
      "epoch": "2026-04-18T13:56:36.626208Z",
      "apogee_km": 1190.920808172109,
      "perigee_km": 1188.5732505462029,
      "latitude_deg": -1.7010413589854677e-05,
      "longitude_deg": -68.50043632187814,
      "height_km": 1192.1649125547392,
      "semi_major_axis_km": 7567.884029359156,
      "eccentricity": 0.0001551,
      "inclination_deg": 87.9197,
      "raan_deg": 347.3501,
      "arg_perigee_deg": 65.8731,
      "mean_anomaly_deg": 294.2563,
      "mean_motion_rev_day": 13.1868498
    },
    {
      "epoch": "2026-04-19T09:58:29.720928Z",
      "apogee_km": 1190.915941369538,
      "perigee_km": 1188.580037988624,
      "latitude_deg": 3.684602815116239e-05,
      "longitude_deg": -9.960023891799956,
      "height_km": 1192.187339627613,
      "semi_major_axis_km": 7567.884989679081,
      "eccentricity": 0.00015433,
      "inclination_deg": 87.9195,
      "raan_deg": 347.1844,
      "arg_perigee_deg": 66.8956,
      "mean_anomaly_deg": 293.2339,
      "mean_motion_rev_day": 13.18684729
    },
    {
      "epoch": "2026-04-20T09:38:54.228192Z",
      "apogee_km": 1190.8979518575452,
      "perigee_km": 1188.5938342319287,
      "latitude_deg": 4.038781486893598e-05,
      "longitude_deg": -6.230374027655277,
      "height_km": 1192.21009183861,
      "semi_major_axis_km": 7567.882893044736,
      "eccentricity": 0.00015223,
      "inclination_deg": 87.9192,
      "raan_deg": 346.9884,
      "arg_perigee_deg": 67.8973,
      "mean_anomaly_deg": 292.2321,
      "mean_motion_rev_day": 13.18685277
    },
    {
      "epoch": "2026-04-21T09:19:18.893568Z",
      "apogee_km": 1190.8900877441456,
      "perigee_km": 1188.6103374002305,
      "latitude_deg": 7.24956956633366e-05,
      "longitude_deg": -2.5013844500305225,
      "height_km": 1192.2253746753352,
      "semi_major_axis_km": 7567.887212572187,
      "eccentricity": 0.00015062,
      "inclination_deg": 87.919,
      "raan_deg": 346.7924,
      "arg_perigee_deg": 68.2422,
      "mean_anomaly_deg": 291.8871,
      "mean_motion_rev_day": 13.18684148
    },
    {
      "epoch": "2026-04-22T03:31:55.249536Z",
      "apogee_km": 1191.1166432829295,
      "perigee_km": 1188.3443820556886,
      "latitude_deg": 2.5848196461949425e-05,
      "longitude_deg": 83.44746651674168,
      "height_km": 1192.1454923527172,
      "semi_major_axis_km": 7567.867512669309,
      "eccentricity": 0.00018316,
      "inclination_deg": 87.9212,
      "raan_deg": 346.6406,
      "arg_perigee_deg": 69.6433,
      "mean_anomaly_deg": 290.4896,
      "mean_motion_rev_day": 13.18689297
    },
    {
      "epoch": "2026-04-23T01:23:02.370048Z",
      "apogee_km": 1190.8207900012494,
      "perigee_km": 1188.5336451884086,
      "latitude_deg": -1.1983375665751233e-05,
      "longitude_deg": 114.59026533084969,
      "height_km": 1192.1912287009557,
      "semi_major_axis_km": 7567.814217594829,
      "eccentricity": 0.00015111,
      "inclination_deg": 87.919,
      "raan_deg": 346.4605,
      "arg_perigee_deg": 70.3959,
      "mean_anomaly_deg": 289.7336,
      "mean_motion_rev_day": 13.18703227
    },
    {
      "epoch": "2026-04-24T15:37:27.721920Z",
      "apogee_km": 1190.6475556048536,
      "perigee_km": 1188.477139431985,
      "latitude_deg": 6.902604932351065e-05,
      "longitude_deg": -100.90294321868495,
      "height_km": 1192.124955626651,
      "semi_major_axis_km": 7567.699347518419,
      "eccentricity": 0.0001434,
      "inclination_deg": 87.918,
      "raan_deg": 346.1434,
      "arg_perigee_deg": 72.0066,
      "mean_anomaly_deg": 288.1223,
      "mean_motion_rev_day": 13.18733252
    },
    {
      "epoch": "2026-04-25T15:17:49.048800Z",
      "apogee_km": 1190.496214195845,
      "perigee_km": 1188.5740254774073,
      "latitude_deg": -4.649479382629569e-05,
      "longitude_deg": -97.15930850678396,
      "height_km": 1192.1365472489247,
      "semi_major_axis_km": 7567.672119836626,
      "eccentricity": 0.000127,
      "inclination_deg": 87.9184,
      "raan_deg": 345.9481,
      "arg_perigee_deg": 72.0178,
      "mean_anomaly_deg": 288.1092,
      "mean_motion_rev_day": 13.18740369
    },
    {
      "epoch": "2026-04-26T16:47:25.141920Z",
      "apogee_km": 1190.5705965015522,
      "perigee_km": 1188.4627022540544,
      "latitude_deg": -2.0535164671290746e-05,
      "longitude_deg": -120.81807026019015,
      "height_km": 1192.096853292634,
      "semi_major_axis_km": 7567.653649377803,
      "eccentricity": 0.00013927,
      "inclination_deg": 87.9182,
      "raan_deg": 345.7367,
      "arg_perigee_deg": 72.4543,
      "mean_anomaly_deg": 287.6741,
      "mean_motion_rev_day": 13.18745197
    },
    {
      "epoch": "2026-04-27T16:27:45.840672Z",
      "apogee_km": 1190.5588308960641,
      "perigee_km": 1188.476212371711,
      "latitude_deg": -3.8568291170456616e-06,
      "longitude_deg": -117.07270531935545,
      "height_km": 1192.1155690622843,
      "semi_major_axis_km": 7567.654521633887,
      "eccentricity": 0.0001376,
      "inclination_deg": 87.9183,
      "raan_deg": 345.5405,
      "arg_perigee_deg": 73.2613,
      "mean_anomaly_deg": 286.867,
      "mean_motion_rev_day": 13.18744969
    },
    {
      "epoch": "2026-04-28T14:18:51.086304Z",
      "apogee_km": 1190.5466108656883,
      "perigee_km": 1188.4866955412863,
      "latitude_deg": 8.894943235006793e-05,
      "longitude_deg": -85.92296553824201,
      "height_km": 1192.1342225688213,
      "semi_major_axis_km": 7567.653653203487,
      "eccentricity": 0.0001361,
      "inclination_deg": 87.9183,
      "raan_deg": 345.3595,
      "arg_perigee_deg": 74.2029,
      "mean_anomaly_deg": 285.9254,
      "mean_motion_rev_day": 13.18745196
    },
    {
      "epoch": "2026-04-29T21:16:13.558656Z",
      "apogee_km": 1190.5368005215432,
      "perigee_km": 1188.4980744160885,
      "latitude_deg": -4.038392380289002e-05,
      "longitude_deg": 168.2055677989138,
      "height_km": 1192.157954936377,
      "semi_major_axis_km": 7567.654437468816,
      "eccentricity": 0.0001347,
      "inclination_deg": 87.9182,
      "raan_deg": 345.103,
      "arg_perigee_deg": 75.3697,
      "mean_anomaly_deg": 284.7584,
      "mean_motion_rev_day": 13.18744991
    }
  ]
}